NORAD_CAT_ID,OBJECT_NAME,OBJECT_TYPE,EPOCH,MEAN_MOTION,ECCENTRICITY,INCLINATION,RA_OF_ASC_NODE,ARG_OF_PERICENTER,MEAN_ANOMALY,BSTAR,MEAN_MOTION_DOT,MEAN_MOTION_DDOT,TLE_LINE0,TLE_LINE1,TLE_LINE2,SEMIMAJOR_AXIS,PERIOD,APOGEE,PERIGEE,DECAYED
53701.0,STARLINK-4711,PAYLOAD,2022-11-05 22:00:01,15.73094483,0.0003476,53.2135,327.1613,13.1706,97.9542,0.00088228,0.00124514,0.0,0 STARLINK-4711,1 53701U 22107B   22309.91668981  .00124514  00000-0  88228-3 0  9990,2 53701  53.2135 327.1613 0003476  13.1706  97.9542 15.73094483  1302,6728.196,91.539,352.4,347.722,0.0
53701.0,STARLINK-4711,PAYLOAD,2022-11-06 14:00:01,15.73248351,0.0003745,53.2133,323.8640000000001,12.192,276.6485,8.368e-05,0.00011163,0.0,0 STARLINK-4711,1 53701U 22107B   22310.58334491  .00011163  00000-0  83680-4 0  9994,2 53701  53.2133 323.8640 0003745  12.1920 276.6485 15.73248351  1306,6727.757,91.53,352.142,347.103,0.0
53701.0,STARLINK-4711,PAYLOAD,2022-11-07 08:00:01,15.73154018,0.0003614,53.2152,320.152,7.3838,211.6548,0.00046138,0.00064518,0.0,0 STARLINK-4711,1 53701U 22107B   22311.33334491  .00064518  00000-0  46138-3 0  9996,2 53701  53.2152 320.1520 0003614   7.3838 211.6548 15.73154018 10072,6728.026,91.536,352.3230000000001,347.46,0.0
53701.0,STARLINK-4711,PAYLOAD,2022-11-07 22:00:00,15.73233114,0.0003083,53.2169,317.2615,315.0489,329.5958,-0.0086489,-0.01090665,0.0,0 STARLINK-4711,1 53701U 22107B   22311.91667824 -.01090665  00000-0 -86489-2 0  9996,2 53701  53.2169 317.2615 0003083 315.0489 329.5958 15.73233114  1308,6727.801,91.531,351.74,347.592,0.0
53701.0,STARLINK-4711,PAYLOAD,2022-11-08 00:00:02,15.72985074,0.0003669,53.2165,316.8489,306.4385,90.5091,-0.008158,-0.01025087,0.0,0 STARLINK-4711,1 53701U 22107B   22312.00002315 -.01025087  00000-0 -81580-2 0  9998,2 53701  53.2165 316.8489 0003669 306.4385  90.5091 15.72985074 10184,6728.5080000000025,91.546,352.842,347.904,0.0
53701.0,STARLINK-4711,PAYLOAD,2022-11-08 10:00:01,15.72046502,0.0006271,53.2174,314.7912,274.3306,322.749,-0.0094772,-0.01132862,0.0,0 STARLINK-4711,1 53701U 22107B   22312.41668981 -.01132862  00000-0 -94772-2 0  9997,2 53701  53.2174 314.7912 0006271 274.3306 322.7490 15.72046502 10244,6731.186,91.6,357.272,348.83,0.0
53701.0,STARLINK-4711,PAYLOAD,2022-11-08 14:00:01,15.71615741,0.0006531,53.2162,313.9678,275.5517,185.1133,-0.009321,-0.01098062,0.0,0 STARLINK-4711,1 53701U 22107B   22312.58334491 -.01098062  00000-0 -93210-2 0  9990,2 53701  53.2162 313.9678 0006531 275.5517 185.1133 15.71615741  1305,6732.416,91.625,358.67800000000005,349.884,0.0
53701.0,STARLINK-4711,PAYLOAD,2022-11-08 22:00:00,15.70833004,0.0006497,53.2167,312.3214,269.3477,277.8518,-0.010076,-0.01142746,0.0,0 STARLINK-4711,1 53701U 22107B   22312.91667824 -.01142746  00000-0 -10076-1 0  9993,2 53701  53.2167 312.3214 0006497 269.3477 277.8518 15.70833004  1305,6734.651999999999,91.671,360.893,352.142,0.0
53701.0,STARLINK-4711,PAYLOAD,2022-11-09 06:00:00,15.70023428,0.0002521,53.217,310.6799,250.2237,22.5409,-0.010431,-0.0114072,0.0,0 STARLINK-4711,1 53701U 22107B   22313.25001157 -.01140720  00000-0 -10431-1 0  9997,2 53701  53.2170 310.6799 0002521 250.2237  22.5409 15.70023428 10377,6736.967,91.718,360.53,357.134,0.0
53701.0,STARLINK-4711,PAYLOAD,2022-11-09 14:00:01,15.69222028,3.26e-05,53.2166,309.0393,6.2477,351.1041,-0.010978,-0.01177346,0.0,0 STARLINK-4711,1 53701U 22107B   22313.58334491 -.01177346  00000-0 -10978-1 0  9993,2 53701  53.2166 309.0393 0000326   6.2477 351.1041 15.69222028  1301,6739.261,91.765,361.345,360.906,0.0
53701.0,STARLINK-4711,PAYLOAD,2022-11-09 22:00:01,15.68442322,0.0001165,53.2167,307.3989,59.1833,21.8295,-0.01181,-0.01221667,0.0,0 STARLINK-4711,1 53701U 22107B   22313.91668981 -.01221667  00000-0 -11810-1 0  9996,2 53701  53.2167 307.3989 0001165  59.1833  21.8295 15.68442322  1301,6741.494000000002,91.811,364.144,362.573,0.0
53701.0,STARLINK-4711,PAYLOAD,2022-11-10 06:00:00,15.67529633,0.000128,53.217,305.7636,88.2273,75.4051,-0.010807,-0.01072715,0.0,0 STARLINK-4711,1 53701U 22107B   22314.25001157 -.01072715  00000-0 -10807-1 0  9993,2 53701  53.2170 305.7636 0001280  88.2273  75.4051 15.67529633 10535,6744.11,91.864,366.839,365.112,0.0
53701.0,STARLINK-4711,PAYLOAD,2022-11-10 14:00:01,15.666016199999998,0.0001007,53.2165,304.1291,72.6392,172.7069,-0.0094647,-0.00919281,0.0,0 STARLINK-4711,1 53701U 22107B   22314.58334491 -.00919281  00000-0 -94647-2 0  9991,2 53701  53.2165 304.1291 0001007  72.6392 172.7069 15.66601620  1306,6746.773,91.919,369.318,367.959,0.0
53701.0,STARLINK-4711,PAYLOAD,2022-11-10 16:00:00,15.66548413,0.0001037,53.217,303.7197,68.579,286.9555,-0.011792,-0.01137158,0.0,0 STARLINK-4711,1 53701U 22107B   22314.66667824 -.01137158  00000-0 -11792-1 0  9994,2 53701  53.2170 303.7197 0001037  68.5790 286.9555 15.66548413 10602,6746.926,91.922,369.491,368.092,0.0
53701.0,STARLINK-4711,PAYLOAD,2022-11-10 22:00:00,15.6593532,0.0001042,53.2173,302.494,76.7016,249.2545,-0.012059,-0.01134587,0.0,0 STARLINK-4711,1 53701U 22107B   22314.91667824 -.01134587  00000-0 -12059-1 0  9992,2 53701  53.2173 302.4940 0001042  76.7016 249.2545 15.65935320  1309,6748.687,91.958,371.255,369.849,0.0
53701.0,STARLINK-4711,PAYLOAD,2022-11-11 08:00:01,15.647539800000002,0.0001301,53.217,300.4586,89.8171,65.6918,-0.0099064,-0.00895355,0.0,0 STARLINK-4711,1 53701U 22107B   22315.33334491 -.00895355  00000-0 -99064-2 0  9998,2 53701  53.2170 300.4586 0001301  89.8171  65.6918 15.64753980 10702,6752.083000000001,92.027,374.827,373.07,0.0
53701.0,STARLINK-4711,PAYLOAD,2022-11-11 14:00:01,15.64294839,0.0001157,53.2168,299.2359,67.3407,57.047,-0.012635,-0.01114934,0.0,0 STARLINK-4711,1 53701U 22107B   22315.58334491 -.01114934  00000-0 -12635-1 0  9991,2 53701  53.2168 299.2359 0001157  67.3407  57.0470 15.64294839 10749,6753.405,92.054,376.051,374.48800000000006,0.0
53701.0,STARLINK-4711,PAYLOAD,2022-11-11 22:00:00,15.63509423,0.0001239,53.2168,297.6077,79.9732,122.1487,-0.013538,-0.01153803,0.0,0 STARLINK-4711,1 53701U 22107B   22315.91667824 -.01153803  00000-0 -13538-1 0  9998,2 53701  53.2168 297.6077 0001239  79.9732 122.1487 15.63509423  1300,6755.666,92.101,378.36800000000005,376.694,0.0
53701.0,STARLINK-4711,PAYLOAD,2022-11-12 06:00:00,15.62680501,0.0001163,53.2171,295.9846,92.8344,186.0632,-0.013726,-0.01134122,0.0,0 STARLINK-4711,1 53701U 22107B   22316.25001157 -.01134122  00000-0 -13726-1 0  9999,2 53701  53.2171 295.9846 0001163  92.8344 186.0632 15.62680501 10844,6758.055,92.149,380.706,379.134,0.0
53701.0,STARLINK-4711,PAYLOAD,2022-11-12 14:00:01,15.61875434,0.0001095,53.2166,294.3611,73.3648,281.3201,-0.014324,-0.01145491,0.0,0 STARLINK-4711,1 53701U 22107B   22316.58334491 -.01145491  00000-0 -14324-1 0  9991,2 53701  53.2166 294.3611 0001095  73.3648 281.3201 15.61875434  1308,6760.377,92.197,382.982,381.502,0.0
53701.0,STARLINK-4711,PAYLOAD,2022-11-12 22:00:00,15.610583800000002,0.0001176,53.2167,292.7389,71.7114,357.7882,-0.014703,-0.01139571,0.0,0 STARLINK-4711,1 53701U 22107B   22316.91667824 -.01139571  00000-0 -14703-1 0  9990,2 53701  53.2167 292.7389 0001176  71.7114 357.7882 15.61058380 10950,6762.736,92.245,385.396,383.805,0.0
53701.0,STARLINK-4711,PAYLOAD,2022-11-13 14:00:01,15.59472319,0.0001203,53.2164,289.5041,77.2625,138.9097,-0.016488,-0.01195754,0.0,0 STARLINK-4711,1 53701U 22107B   22317.58334491 -.01195754  00000-0 -16488-1 0  9992,2 53701  53.2164 289.5041 0001203  77.2625 138.9097 15.59472319  1300,6767.32,92.339,389.999,388.371,0.0
53701.0,STARLINK-4711,PAYLOAD,2022-11-13 22:00:00,15.5859074,0.0001104,53.2166,287.8877,72.3179,215.7671,-0.015595,-0.01102908,0.0,0 STARLINK-4711,1 53701U 22107B   22317.91667824 -.01102908  00000-0 -15595-1 0  9995,2 53701  53.2166 287.8877 0001104  72.3179 215.7671 15.58590740 11109,6769.871999999999,92.391,392.484,390.989,0.0
53701.0,STARLINK-4711,PAYLOAD,2022-11-14 14:00:01,15.56985221,0.0001199,53.2175,284.6643,57.6526,11.2473,-0.017069,-0.01132852,0.0,0 STARLINK-4711,1 53701U 22107B   22318.58334491 -.01132852  00000-0 -17069-1 0  9999,2 53701  53.2175 284.6643 0001199  57.6526  11.2473 15.56985221  1301,6774.525,92.486,397.202,395.578,0.0
53701.0,STARLINK-4711,PAYLOAD,2022-11-14 22:00:00,15.56170636,0.0001228,53.2178,283.0543,89.6884,48.158,-0.017555,-0.01130328,0.0,0 STARLINK-4711,1 53701U 22107B   22318.91667824 -.01130328  00000-0 -17555-1 0  9991,2 53701  53.2178 283.0543 0001228  89.6884  48.1580 15.56170636  1305,6776.889,92.535,399.586,397.922,0.0
53701.0,STARLINK-4711,PAYLOAD,2022-11-15 14:00:01,15.54495709,0.0001153,53.2166,279.8428,100.595,172.2331,-0.0175479999999999,-0.01067912,0.0,0 STARLINK-4711,1 53701U 22107B   22319.58334491 -.01067912  00000-0 -17548-1 0  9996,2 53701  53.2166 279.8428 0001153 100.5950 172.2331 15.54495709  1303,6781.755999999999,92.635,404.403,402.839,0.0
53701.0,STARLINK-4711,PAYLOAD,2022-11-15 16:00:00,15.54337879,0.0001051,53.2171,279.4413,96.7745,282.6256,-0.018744,-0.01127725,0.0,0 STARLINK-4711,1 53701U 22107B   22319.66667824 -.01127725  00000-0 -18744-1 0  9992,2 53701  53.2171 279.4413 0001051  96.7745 282.6256 15.54337879 11388,6782.215,92.644,404.793,403.367,0.0
53701.0,STARLINK-4711,PAYLOAD,2022-11-15 22:00:00,15.53728856,0.0001113,53.2176,278.2387,105.607,233.2105,-0.019188,-0.0112878,0.0,0 STARLINK-4711,1 53701U 22107B   22319.91667824 -.01128780  00000-0 -19188-1 0  9995,2 53701  53.2176 278.2387 0001113 105.6070 233.2105 15.53728856  1304,6783.986999999999,92.68,406.607,405.097,0.0
53701.0,STARLINK-4711,PAYLOAD,2022-11-16 14:00:01,15.52102206,0.0001143,53.2174,275.0386,91.0429,16.9303,-0.020392,-0.01130367,0.0,0 STARLINK-4711,1 53701U 22107B   22320.58335648 -.01130367  00000-0 -20392-1 0  9999,2 53701  53.2174 275.0386 0001143  91.0429  16.9303 15.52102206 11520,6788.726,92.777,411.367,409.815,0.0
